[{"OBJECT_NAME":"SPIP","OBJECT_ID":"2023-174AU","EPOCH":"2026-03-09T22:52:46.383168","MEAN_MOTION":15.26695413,"ECCENTRICITY":0.00100427,"INCLINATION":97.3901,"RA_OF_ASC_NODE":146.4534,"ARG_OF_PERICENTER":168.1112,"MEAN_ANOMALY":192.0366,"EPHEMERIS_TYPE":0,"CLASSIFICATION_TYPE":"U","NORAD_CAT_ID":58298,"ELEMENT_SET_NO":999,"REV_AT_EPOCH":12963,"BSTAR":0.00025731582,"MEAN_MOTION_DOT":6.692e-5,"MEAN_MOTION_DDOT":0},{"OBJECT_NAME":"STARLINK-31744","OBJECT_ID":"2024-071L","EPOCH":"2026-03-08T05:29:58.821792","MEAN_MOTION":15.27607308,"ECCENTRICITY":0.0001065,"INCLINATION":43.0052,"RA_OF_ASC_NODE":355.6563,"ARG_OF_PERICENTER":283.7136,"MEAN_ANOMALY":76.3597,"EPHEMERIS_TYPE":0,"CLASSIFICATION_TYPE":"U","NORAD_CAT_ID":59494,"ELEMENT_SET_NO":999,"REV_AT_EPOCH":10789,"BSTAR":7.373183e-5,"MEAN_MOTION_DOT":1.769e-5,"MEAN_MOTION_DDOT":0}]
